OBJECT_NAME,OBJECT_ID,EPOCH,MEAN_MOTION,ECCENTRICITY,INCLINATION,RA_OF_ASC_NODE,ARG_OF_PERICENTER,MEAN_ANOMALY,EPHEMERIS_TYPE,CLASSIFICATION_TYPE,NORAD_CAT_ID,ELEMENT_SET_NO,REV_AT_EPOCH,BSTAR,MEAN_MOTION_DOT,MEAN_MOTION_DDOT
STARLINK-37376,2026-123AB,2026-06-10T12:00:02.000160,16.02224121,.0000599,53.1564,275.1394,81.3454,170.8850,0,U,69378,999,221,-.30637E-2,-.1819187E-1,.10181E-2
STARLINK-37383,2026-123AC,2026-06-10T12:00:02.000160,16.03181321,.0000709,53.1559,275.1000,53.6998,217.3439,0,U,69379,999,221,-.29679E-2,-.1864576E-1,.10784E-2
STARLINK-37411,2026-123AD,2026-06-10T12:00:02.000160,16.02383200,.0000903,53.1564,275.1264,53.9388,204.3497,0,U,69380,999,221,-.31394E-2,-.188098E-1,.1086E-2
STARLINK-37427,2026-123AE,2026-06-10T12:00:02.000160,16.02883146,.0000793,53.1563,275.1108,55.0932,210.7572,0,U,69381,999,212,-.29334E-2,-.1811219E-1,.10176E-2
DTC TEST OBJECT A,2026-128A,2026-06-10T11:40:18.937920,15.55739576,.0008109,54.9940,335.9813,259.3786,100.6337,0,U,69472,999,18,.34522E-3,.23794E-3,0
DTC TEST OBJECT B,2026-128B,2026-06-09T14:05:01.279968,15.55833698,.0008153,55.0026,340.1350,260.4303,99.5812,0,U,69473,999,3,.24813E-3,.17012E-3,0
